TELKOM 4 (MERAH PUTIH)  
1 43587U 18064A   26066.10204211 -.00000346  00000+0  00000+0 0  9999
2 43587   0.0116 131.9802 0001721 252.8675 284.6841  1.00272450 27853
TELSTAR 18V             
1 43611U 18069A   26065.97128064 -.00000297  00000+0  00000+0 0  9992
2 43611   0.0167 202.1119 0002107 146.7132 303.5028  1.00270292 27600
AZERSPACE 2 (IS-38)     
1 43632U 18074A   26066.08973539  .00000000  00000+0  00000+0 0  9990
2 43632   0.0206 157.1126 0001430 207.3265 237.7884  1.00270745 27424
HORIZONS-3E             
1 43633U 18074B   26066.11426218 -.00000033  00000+0  00000+0 0  9999
2 43633   0.0094 214.7024 0000576 128.9563  31.2675  1.00272125 27313
BEIDOU-3 G1             
1 43683U 18085A   26066.17978247 -.00000281  00000+0  00000+0 0  9991
2 43683   2.8177 100.3057 0001582  15.4114 253.8947  1.00267768 27036
GSAT-29                 
1 43698U 18089A   26066.09164207  .00000083  00000+0  00000+0 0  9994
2 43698   0.0513 272.2345 0001692  65.1892 275.3858  1.00273043 26764
ES'HAIL 2               
1 43700U 18090A   26066.07802911  .00000142  00000+0  00000+0 0  9995
2 43700   0.0193 183.1760 0001108 158.0769 237.3854  1.00274545 26650
GEO-KOMPSAT-2A          
1 43823U 18100A   26066.00441887 -.00000347  00000+0  00000+0 0  9995
2 43823   0.0434 343.1049 0001500  66.9640 244.4740  1.00274944 26604
GSAT-11                 
1 43824U 18100B   26066.15808685 -.00000079  00000+0  00000+0 0  9997
2 43824   0.0791 270.8432 0005252 145.9925 238.9256  1.00272152 26457
GSAT-7A                 
1 43864U 18105A   26066.07961444  .00000024  00000+0  00000+0 0  9999
2 43864   0.0927 278.0738 0001940  62.2254 275.8747  1.00272000 26421
COSMOS 2533             
1 43867U 18107A   26065.38136925 -.00000043  00000+0  00000+0 0  9997
2 43867   0.0176 118.7452 0000426 357.0600 255.5855  1.00272544 26407
TJS-3                   
1 43874U 18110A   26065.73271221 -.00000226  00000+0  00000+0 0  9990
2 43874   2.2806  81.7579 0017063 345.2675  88.7284  1.00349270 26395
ZHONGXING-2D            
1 43920U 19001A   26066.19003162 -.00000339  00000+0  00000+0 0  9995
2 43920   0.0503 299.9701 0000943   4.7665  58.5857  1.00270788 53053
HELLAS-SAT 4 & SGS-1    
1 44034U 19007A   26066.07108451  .00000150  00000+0  00000+0 0  9992
2 44034   0.0659 127.0081 0003067  18.6684  83.7127  1.00271275 26343
GSAT-31                 
1 44035U 19007B   26066.04697604  .00000123  00000+0  00000+0 0  9993
2 44035   0.0263 253.0218 0004411  55.3898 281.1071  1.00271975 25940
NUSANTARA SATU          
1 44048U 19009A   26065.89572802 -.00000238  00000+0  00000+0 0  9991
2 44048   0.0282 133.3607 0001681 321.8861 177.8143  1.00270892 25740
ZHONGXING-6C            
1 44067U 19012A   26065.82137016 -.00000339  00000+0  00000+0 0  9995
2 44067   0.0495  61.8329 0008863 329.4205 199.3695  1.00269603 25714
