[{"OBJECT_NAME":"TELKOM 4 (MERAH PUTIH)","OBJECT_ID":"2018-064A","EPOCH":"2026-03-07T02:26:56.438304","MEAN_MOTION":1.0027245,"ECCENTRICITY":0.0001721,"INCLINATION":0.0116,"RA_OF_ASC_NODE":131.9802,"ARG_OF_PERICENTER":252.8675,"MEAN_ANOMALY":284.6841,"EPHEMERIS_TYPE":0,"CLASSIFICATION_TYPE":"U","NORAD_CAT_ID":43587,"ELEMENT_SET_NO":999,"REV_AT_EPOCH":2785,"BSTAR":0,"MEAN_MOTION_DOT":-3.46e-6,"MEAN_MOTION_DDOT":0},{"OBJECT_NAME":"TELSTAR 18V","OBJECT_ID":"2018-069A","EPOCH":"2026-03-06T23:18:38.647296","MEAN_MOTION":1.00270292,"ECCENTRICITY":0.0002107,"INCLINATION":0.0167,"RA_OF_ASC_NODE":202.1119,"ARG_OF_PERICENTER":146.7132,"MEAN_ANOMALY":303.5028,"EPHEMERIS_TYPE":0,"CLASSIFICATION_TYPE":"U","NORAD_CAT_ID":43611,"ELEMENT_SET_NO":999,"REV_AT_EPOCH":2760,"BSTAR":0,"MEAN_MOTION_DOT":-2.97e-6,"MEAN_MOTION_DDOT":0},{"OBJECT_NAME":"AZERSPACE 2 (IS-38)","OBJECT_ID":"2018-074A","EPOCH":"2026-03-07T02:09:13.137696","MEAN_MOTION":1.00270745,"ECCENTRICITY":0.000143,"INCLINATION":0.0206,"RA_OF_ASC_NODE":157.1126,"ARG_OF_PERICENTER":207.3265,"MEAN_ANOMALY":237.7884,"EPHEMERIS_TYPE":0,"CLASSIFICATION_TYPE":"U","NORAD_CAT_ID":43632,"ELEMENT_SET_NO":999,"REV_AT_EPOCH":2742,"BSTAR":0,"MEAN_MOTION_DOT":0,"MEAN_MOTION_DDOT":0},{"OBJECT_NAME":"HORIZONS-3E","OBJECT_ID":"2018-074B","EPOCH":"2026-03-07T02:44:32.252352","MEAN_MOTION":1.00272125,"ECCENTRICITY":5.76e-5,"INCLINATION":0.0094,"RA_OF_ASC_NODE":214.7024,"ARG_OF_PERICENTER":128.9563,"MEAN_ANOMALY":31.2675,"EPHEMERIS_TYPE":0,"CLASSIFICATION_TYPE":"U","NORAD_CAT_ID":43633,"ELEMENT_SET_NO":999,"REV_AT_EPOCH":2731,"BSTAR":0,"MEAN_MOTION_DOT":-3.3e-7,"MEAN_MOTION_DDOT":0},{"OBJECT_NAME":"BEIDOU-3 G1","OBJECT_ID":"2018-085A","EPOCH":"2026-03-07T04:18:53.205408","MEAN_MOTION":1.00267768,"ECCENTRICITY":0.0001582,"INCLINATION":2.8177,"RA_OF_ASC_NODE":100.3057,"ARG_OF_PERICENTER":15.4114,"MEAN_ANOMALY":253.8947,"EPHEMERIS_TYPE":0,"CLASSIFICATION_TYPE":"U","NORAD_CAT_ID":43683,"ELEMENT_SET_NO":999,"REV_AT_EPOCH":2703,"BSTAR":0,"MEAN_MOTION_DOT":-2.81e-6,"MEAN_MOTION_DDOT":0},{"OBJECT_NAME":"GSAT-29","OBJECT_ID":"2018-089A","EPOCH":"2026-03-07T02:11:57.874848","MEAN_MOTION":1.00273043,"ECCENTRICITY":0.0001692,"INCLINATION":0.0513,"RA_OF_ASC_NODE":272.2345,"ARG_OF_PERICENTER":65.1892,"MEAN_ANOMALY":275.3858,"EPHEMERIS_TYPE":0,"CLASSIFICATION_TYPE":"U","NORAD_CAT_ID":43698,"ELEMENT_SET_NO":999,"REV_AT_EPOCH":2676,"BSTAR":0,"MEAN_MOTION_DOT":8.3e-7,"MEAN_MOTION_DDOT":0},{"OBJECT_NAME":"ES'HAIL 2","OBJECT_ID":"2018-090A","EPOCH":"2026-03-07T01:52:21.715104","MEAN_MOTION":1.00274545,"ECCENTRICITY":0.0001108,"INCLINATION":0.0193,"RA_OF_ASC_NODE":183.176,"ARG_OF_PERICENTER":158.0769,"MEAN_ANOMALY":237.3854,"EPHEMERIS_TYPE":0,"CLASSIFICATION_TYPE":"U","NORAD_CAT_ID":43700,"ELEMENT_SET_NO":999,"REV_AT_EPOCH":2665,"BSTAR":0,"MEAN_MOTION_DOT":1.42e-6,"MEAN_MOTION_DDOT":0},{"OBJECT_NAME":"GEO-KOMPSAT-2A","OBJECT_ID":"2018-100A","EPOCH":"2026-03-07T00:06:21.790368","MEAN_MOTION":1.00274944,"ECCENTRICITY":0.00015,"INCLINATION":0.0434,"RA_OF_ASC_NODE":343.1049,"ARG_OF_PERICENTER":66.964,"MEAN_ANOMALY":244.474,"EPHEMERIS_TYPE":0,"CLASSIFICATION_TYPE":"U","NORAD_CAT_ID":43823,"ELEMENT_SET_NO":999,"REV_AT_EPOCH":2660,"BSTAR":0,"MEAN_MOTION_DOT":-3.47e-6,"MEAN_MOTION_DDOT":0},{"OBJECT_NAME":"GSAT-11","OBJECT_ID":"2018-100B","EPOCH":"2026-03-07T03:47:38.703840","MEAN_MOTION":1.00272152,"ECCENTRICITY":0.0005252,"INCLINATION":0.0791,"RA_OF_ASC_NODE":270.8432,"ARG_OF_PERICENTER":145.9925,"MEAN_ANOMALY":238.9256,"EPHEMERIS_TYPE":0,"CLASSIFICATION_TYPE":"U","NORAD_CAT_ID":43824,"ELEMENT_SET_NO":999,"REV_AT_EPOCH":2645,"BSTAR":0,"MEAN_MOTION_DOT":-7.9e-7,"MEAN_MOTION_DDOT":0},{"OBJECT_NAME":"GSAT-7A","OBJECT_ID":"2018-105A","EPOCH":"2026-03-07T01:54:38.687616","MEAN_MOTION":1.00272,"ECCENTRICITY":0.000194,"INCLINATION":0.0927,"RA_OF_ASC_NODE":278.0738,"ARG_OF_PERICENTER":62.2254,"MEAN_ANOMALY":275.8747,"EPHEMERIS_TYPE":0,"CLASSIFICATION_TYPE":"U","NORAD_CAT_ID":43864,"ELEMENT_SET_NO":999,"REV_AT_EPOCH":2642,"BSTAR":0,"MEAN_MOTION_DOT":2.4e-7,"MEAN_MOTION_DDOT":0},{"OBJECT_NAME":"COSMOS 2533","OBJECT_ID":"2018-107A","EPOCH":"2026-03-06T09:09:10.303200","MEAN_MOTION":1.00272544,"ECCENTRICITY":4.263e-5,"INCLINATION":0.0176,"RA_OF_ASC_NODE":118.7452,"ARG_OF_PERICENTER":357.06,"MEAN_ANOMALY":255.5855,"EPHEMERIS_TYPE":0,"CLASSIFICATION_TYPE":"U","NORAD_CAT_ID":43867,"ELEMENT_SET_NO":999,"REV_AT_EPOCH":2640,"BSTAR":0,"MEAN_MOTION_DOT":-4.3e-7,"MEAN_MOTION_DDOT":0},{"OBJECT_NAME":"TJS-3","OBJECT_ID":"2018-110A","EPOCH":"2026-03-06T17:35:06.334944","MEAN_MOTION":1.0034927,"ECCENTRICITY":0.0017063,"INCLINATION":2.2806,"RA_OF_ASC_NODE":81.7579,"ARG_OF_PERICENTER":345.2675,"MEAN_ANOMALY":88.7284,"EPHEMERIS_TYPE":0,"CLASSIFICATION_TYPE":"U","NORAD_CAT_ID":43874,"ELEMENT_SET_NO":999,"REV_AT_EPOCH":2639,"BSTAR":0,"MEAN_MOTION_DOT":-2.26e-6,"MEAN_MOTION_DDOT":0},{"OBJECT_NAME":"ZHONGXING-2D","OBJECT_ID":"2019-001A","EPOCH":"2026-03-07T04:33:38.731968","MEAN_MOTION":1.00270788,"ECCENTRICITY":9.43e-5,"INCLINATION":0.0503,"RA_OF_ASC_NODE":299.9701,"ARG_OF_PERICENTER":4.7665,"MEAN_ANOMALY":58.5857,"EPHEMERIS_TYPE":0,"CLASSIFICATION_TYPE":"U","NORAD_CAT_ID":43920,"ELEMENT_SET_NO":999,"REV_AT_EPOCH":5305,"BSTAR":0,"MEAN_MOTION_DOT":-3.39e-6,"MEAN_MOTION_DDOT":0},{"OBJECT_NAME":"HELLAS-SAT 4 & SGS-1","OBJECT_ID":"2019-007A","EPOCH":"2026-03-07T01:42:21.701664","MEAN_MOTION":1.00271275,"ECCENTRICITY":0.0003067,"INCLINATION":0.0659,"RA_OF_ASC_NODE":127.0081,"ARG_OF_PERICENTER":18.6684,"MEAN_ANOMALY":83.7127,"EPHEMERIS_TYPE":0,"CLASSIFICATION_TYPE":"U","NORAD_CAT_ID":44034,"ELEMENT_SET_NO":999,"REV_AT_EPOCH":2634,"BSTAR":0,"MEAN_MOTION_DOT":1.5e-6,"MEAN_MOTION_DDOT":0},{"OBJECT_NAME":"GSAT-31","OBJECT_ID":"2019-007B","EPOCH":"2026-03-07T01:07:38.729856","MEAN_MOTION":1.00271975,"ECCENTRICITY":0.0004411,"INCLINATION":0.0263,"RA_OF_ASC_NODE":253.0218,"ARG_OF_PERICENTER":55.3898,"MEAN_ANOMALY":281.1071,"EPHEMERIS_TYPE":0,"CLASSIFICATION_TYPE":"U","NORAD_CAT_ID":44035,"ELEMENT_SET_NO":999,"REV_AT_EPOCH":2594,"BSTAR":0,"MEAN_MOTION_DOT":1.23e-6,"MEAN_MOTION_DDOT":0},{"OBJECT_NAME":"NUSANTARA SATU","OBJECT_ID":"2019-009A","EPOCH":"2026-03-06T21:29:50.900928","MEAN_MOTION":1.00270892,"ECCENTRICITY":0.0001681,"INCLINATION":0.0282,"RA_OF_ASC_NODE":133.3607,"ARG_OF_PERICENTER":321.8861,"MEAN_ANOMALY":177.8143,"EPHEMERIS_TYPE":0,"CLASSIFICATION_TYPE":"U","NORAD_CAT_ID":44048,"ELEMENT_SET_NO":999,"REV_AT_EPOCH":2574,"BSTAR":0,"MEAN_MOTION_DOT":-2.38e-6,"MEAN_MOTION_DDOT":0},{"OBJECT_NAME":"ZHONGXING-6C","OBJECT_ID":"2019-012A","EPOCH":"2026-03-06T19:42:46.381824","MEAN_MOTION":1.00269603,"ECCENTRICITY":0.0008863,"INCLINATION":0.0495,"RA_OF_ASC_NODE":61.8329,"ARG_OF_PERICENTER":329.4205,"MEAN_ANOMALY":199.3695,"EPHEMERIS_TYPE":0,"CLASSIFICATION_TYPE":"U","NORAD_CAT_ID":44067,"ELEMENT_SET_NO":999,"REV_AT_EPOCH":2571,"BSTAR":0,"MEAN_MOTION_DOT":-3.39e-6,"MEAN_MOTION_DDOT":0}]
